[{"OBJECT_NAME":"TRANSPORTER-11 OBJECT A","OBJECT_ID":"2024-149A","EPOCH":"2026-03-09T17:54:54.302112","MEAN_MOTION":15.31141332,"ECCENTRICITY":0.00031096,"INCLINATION":97.378,"RA_OF_ASC_NODE":149.0949,"ARG_OF_PERICENTER":191.001,"MEAN_ANOMALY":169.1164,"EPHEMERIS_TYPE":0,"CLASSIFICATION_TYPE":"U","NORAD_CAT_ID":60468,"ELEMENT_SET_NO":999,"REV_AT_EPOCH":8683,"BSTAR":0.00036053677,"MEAN_MOTION_DOT":0.00010774,"MEAN_MOTION_DDOT":0},{"OBJECT_NAME":"STARLINK-34643","OBJECT_ID":"2025-157V","EPOCH":"2026-03-09T23:21:36.766944","MEAN_MOTION":15.30226893,"ECCENTRICITY":0.00012292,"INCLINATION":53.1606,"RA_OF_ASC_NODE":344.6018,"ARG_OF_PERICENTER":107.1116,"MEAN_ANOMALY":253.0019,"EPHEMERIS_TYPE":0,"CLASSIFICATION_TYPE":"U","NORAD_CAT_ID":64923,"ELEMENT_SET_NO":999,"REV_AT_EPOCH":3616,"BSTAR":0.0012498126,"MEAN_MOTION_DOT":0.00036871,"MEAN_MOTION_DDOT":0}]
